{"type": "FeatureCollection", "features": [ {"type": "Feature", "properties": {"norad_id": 38552, "name": "METEOSAT-10 (MSG-3)", "group": "weather", "lat": 4.117172861881092, "lon": 164.44809752274807, "alt_km": 35787.533176207915, "timestamp": "2025-12-08T05:48:08.691412+00:00", "meta": {"OBJECT_NAME": "METEOSAT-10 (MSG-3)", "OBJECT_ID": "2012-035B", "EPOCH": "2025-12-07T22:11:45.477888", "MEAN_MOTION": 1.00273474, "ECCENTRICITY": 8.846e-05, "INCLINATION": 4.2175, "RA_OF_ASC_NODE": 61.7316, "ARG_OF_PERICENTER": 234.3962, "MEAN_ANOMALY": 113.8829, "EPHEMERIS_TYPE": 0, "CLASSIFICATION_TYPE": "U", "NORAD_CAT_ID": 38552, "ELEMENT_SET_NO": 999, "REV_AT_EPOCH": 4893, "BSTAR": 0, "MEAN_MOTION_DOT": -4e-08, "MEAN_MOTION_DDOT": 0}, "tle": {"line1": "1 38552U 12035B   25341.92483192 -.00000004  00000+0  00000+0 0  9990", "line2": "2 38552   4.2175  61.7316 0000884 234.3962 113.8829  1.00273474 48931"}}, "geometry": {"type": "Point", "coordinates": [164.44809752274807, 4.117172861881092]}}, {"type": "Feature", "properties": {"norad_id": 38771, "name": "METOP-B", "group": "weather", "lat": 54.627653919616556, "lon": -135.29671202293335, "alt_km": 813.6902619593811, "timestamp": "2025-12-08T05:48:08.691424+00:00", "meta": {"OBJECT_NAME": "METOP-B", "OBJECT_ID": "2012-049A", "EPOCH": "2025-12-07T22:27:41.916384", "MEAN_MOTION": 14.21405545, "ECCENTRICITY": 0.00027116, "INCLINATION": 98.6805, "RA_OF_ASC_NODE": 31.976, "ARG_OF_PERICENTER": 154.7462, "MEAN_ANOMALY": 205.3849, "EPHEMERIS_TYPE": 0, "CLASSIFICATION_TYPE": "U", "NORAD_CAT_ID": 38771, "ELEMENT_SET_NO": 999, "REV_AT_EPOCH": 68609, "BSTAR": 0.00012767047, "MEAN_MOTION_DOT": 2.35e-06, "MEAN_MOTION_DDOT": 0}, "tle": {"line1": "1 38771U 12049A   25341.93590181  .00000235  00000+0  12767-3 0  9998", "line2": "2 38771  98.6805  31.9760 0002711 154.7462 205.3849 14.21405545686091"}}, "geometry": {"type": "Point", "coordinates": [-135.29671202293335, 54.627653919616556]}}, {"type": "Feature", "properties": {"norad_id": 39216, "name": "INSAT-3D", "group": "weather", "lat": -0.7084008050286141, "lon": -66.16349590809158, "alt_km": 35781.30047512661, "timestamp": "2025-12-08T05:48:08.691435+00:00", "meta": {"OBJECT_NAME": "INSAT-3D", "OBJECT_ID": "2013-038B", "EPOCH": "2025-12-07T22:48:41.940288", "MEAN_MOTION": 1.00271792, "ECCENTRICITY": 0.00017174, "INCLINATION": 1.4323, "RA_OF_ASC_NODE": 85.039, "ARG_OF_PERICENTER": 161.2231, "MEAN_ANOMALY": 302.422, "EPHEMERIS_TYPE": 0, "CLASSIFICATION_TYPE": "U", "NORAD_CAT_ID": 39216, "ELEMENT_SET_NO": 999, "REV_AT_EPOCH": 4516, "BSTAR": 0, "MEAN_MOTION_DOT": -3.36e-06, "MEAN_MOTION_DDOT": 0}, "tle": {"line1": "1 39216U 13038B   25341.95048542 -.00000336  00000+0  00000+0 0  9999", "line2": "2 39216   1.4323  85.0390 0001717 161.2231 302.4220  1.00271792 45161"}}, "geometry": {"type": "Point", "coordinates": [-66.16349590809158, -0.7084008050286141]}}, {"type": "Feature", "properties": {"norad_id": 39260, "name": "FENGYUN 3C", "group": "weather", "lat": 73.92753690684418, "lon": 171.3093337261086, "alt_km": 835.6073795601151, "timestamp": "2025-12-08T05:48:08.691447+00:00", "meta": {"OBJECT_NAME": "FENGYUN 3C", "OBJECT_ID": "2013-052A", "EPOCH": "2025-12-07T22:31:42.202560", "MEAN_MOTION": 14.15693932, "ECCENTRICITY": 0.00140273, "INCLINATION": 98.4759, "RA_OF_ASC_NODE": 319.8526, "ARG_OF_PERICENTER": 210.3308, "MEAN_ANOMALY": 149.7056, "EPHEMERIS_TYPE": 0, "CLASSIFICATION_TYPE": "U", "NORAD_CAT_ID": 39260, "ELEMENT_SET_NO": 999, "REV_AT_EPOCH": 63150, "BSTAR": 0.00011407317, "MEAN_MOTION_DOT": 1.83e-06, "MEAN_MOTION_DDOT": 0}, "tle": {"line1": "1 39260U 13052A   25341.93868290  .00000183  00000+0  11407-3 0  9998", "line2": "2 39260  98.4759 319.8526 0014027 210.3308 149.7056 14.15693932631509"}}, "geometry": {"type": "Point", "coordinates": [171.3093337261086, 73.92753690684418]}}, {"type": "Feature", "properties": {"norad_id": 40069, "name": "METEOR-M 2", "group": "weather", "lat": -6.847367097763504, "lon": -38.97344997970975, "alt_km": 826.6476008902264, "timestamp": "2025-12-08T05:48:08.691457+00:00", "meta": {"OBJECT_NAME": "METEOR-M 2", "OBJECT_ID": "2014-037A", "EPOCH": "2025-12-07T23:04:37.571808", "MEAN_MOTION": 14.21383509, "ECCENTRICITY": 0.00048525, "INCLINATION": 98.4898, "RA_OF_ASC_NODE": 319.7294, "ARG_OF_PERICENTER": 224.9867, "MEAN_ANOMALY": 135.0919, "EPHEMERIS_TYPE": 0, "CLASSIFICATION_TYPE": "U", "NORAD_CAT_ID": 40069, "ELEMENT_SET_NO": 999, "REV_AT_EPOCH": 59215, "BSTAR": 0.00013499211, "MEAN_MOTION_DOT": 2.53e-06, "MEAN_MOTION_DDOT": 0}, "tle": {"line1": "1 40069U 14037A   25341.96154597  .00000253  00000+0  13499-3 0  9993", "line2": "2 40069  98.4898 319.7294 0004852 224.9867 135.0919 14.21383509592155"}}, "geometry": {"type": "Point", "coordinates": [-38.97344997970975, -6.847367097763504]}}, {"type": "Feature", "properties": {"norad_id": 40267, "name": "HIMAWARI-8", "group": "weather", "lat": -0.018388313007496094, "lon": -55.05056731256778, "alt_km": 35781.32198805359, "timestamp": "2025-12-08T05:48:08.691469+00:00", "meta": {"OBJECT_NAME": "HIMAWARI-8", "OBJECT_ID": "2014-060A", "EPOCH": "2025-12-07T22:51:34.164864", "MEAN_MOTION": 1.00269403, "ECCENTRICITY": 0.00013437, "INCLINATION": 0.0504, "RA_OF_ASC_NODE": 135.4496, "ARG_OF_PERICENTER": 154.0261, "MEAN_ANOMALY": 271.0486, "EPHEMERIS_TYPE": 0, "CLASSIFICATION_TYPE": "U", "NORAD_CAT_ID": 40267, "ELEMENT_SET_NO": 999, "REV_AT_EPOCH": 4084, "BSTAR": 0, "MEAN_MOTION_DOT": -2.73e-06, "MEAN_MOTION_DDOT": 0}, "tle": {"line1": "1 40267U 14060A   25341.95247876 -.00000273  00000+0  00000+0 0  9994", "line2": "2 40267   0.0504 135.4496 0001343 154.0261 271.0486  1.00269403 40841"}}, "geometry": {"type": "Point", "coordinates": [-55.05056731256778, -0.018388313007496094]}}, {"type": "Feature", "properties": {"norad_id": 40367, "name": "FENGYUN 2G", "group": "weather", "lat": -0.8082367896134209, "lon": -96.1135494178042, "alt_km": 35774.845484131314, "timestamp": "2025-12-08T05:48:08.691481+00:00", "meta": {"OBJECT_NAME": "FENGYUN 2G", "OBJECT_ID": "2014-090A", "EPOCH": "2025-12-07T19:14:37.154688", "MEAN_MOTION": 1.00265807, "ECCENTRICITY": 0.00031202, "INCLINATION": 5.1554, "RA_OF_ASC_NODE": 75.1544, "ARG_OF_PERICENTER": 196.9461, "MEAN_ANOMALY": 193.0185, "EPHEMERIS_TYPE": 0, "CLASSIFICATION_TYPE": "U", "NORAD_CAT_ID": 40367, "ELEMENT_SET_NO": 999, "REV_AT_EPOCH": 4008, "BSTAR": 0, "MEAN_MOTION_DOT": -3e-06, "MEAN_MOTION_DDOT": 0}, "tle": {"line1": "1 40367U 14090A   25341.80181892 -.00000300  00000+0  00000+0 0  9998", "line2": "2 40367   5.1554  75.1544 0003120 196.9461 193.0185  1.00265807 40088"}}, "geometry": {"type": "Point", "coordinates": [-96.1135494178042, -0.8082367896134209]}}, {"type": "Feature", "properties": {"norad_id": 40732, "name": "METEOSAT-11 (MSG-4)", "group": "weather", "lat": 2.665221844524849, "lon": 173.66326479711623, "alt_km": 35783.44837987741, "timestamp": "2025-12-08T05:48:08.691493+00:00", "meta": {"OBJECT_NAME": "METEOSAT-11 (MSG-4)", "OBJECT_ID": "2015-034A", "EPOCH": "2025-12-07T22:14:22.726752", "MEAN_MOTION": 1.0026599, "ECCENTRICITY": 9.792e-05, "INCLINATION": 2.7233, "RA_OF_ASC_NODE": 72.0159, "ARG_OF_PERICENTER": 120.5352, "MEAN_ANOMALY": 227.3586, "EPHEMERIS_TYPE": 0, "CLASSIFICATION_TYPE": "U", "NORAD_CAT_ID": 40732, "ELEMENT_SET_NO": 999, "REV_AT_EPOCH": 529, "BSTAR": 0, "MEAN_MOTION_DOT": 6.4e-07, "MEAN_MOTION_DDOT": 0}, "tle": {"line1": "1 40732U 15034A   25341.92665193  .00000064  00000+0  00000+0 0  9993", "line2": "2 40732   2.7233  72.0159 0000979 120.5352 227.3586  1.00265990  5293"}}, "geometry": {"type": "Point", "coordinates": [173.66326479711623, 2.665221844524849]}}, {"type": "Feature", "properties": {"norad_id": 41105, "name": "ELEKTRO-L 2", "group": "weather", "lat": 6.060394691748407, "lon": 149.67003068144777, "alt_km": 35794.557076924095, "timestamp": "2025-12-08T05:48:08.691504+00:00", "meta": {"OBJECT_NAME": "ELEKTRO-L 2", "OBJECT_ID": "2015-074A", "EPOCH": "2025-12-07T01:34:48.213120", "MEAN_MOTION": 1.00272049, "ECCENTRICITY": 0.00039152, "INCLINATION": 6.2111, "RA_OF_ASC_NODE": 72.8948, "ARG_OF_PERICENTER": 201.1648, "MEAN_ANOMALY": 171.2246, "EPHEMERIS_TYPE": 0, "CLASSIFICATION_TYPE": "U", "NORAD_CAT_ID": 41105, "ELEMENT_SET_NO": 999, "REV_AT_EPOCH": 3658, "BSTAR": 0, "MEAN_MOTION_DOT": -1.15e-06, "MEAN_MOTION_DDOT": 0}, "tle": {"line1": "1 41105U 15074A   25341.06583580 -.00000115  00000+0  00000+0 0  9994", "line2": "2 41105   6.2111  72.8948 0003915 201.1648 171.2246  1.00272049 36582"}}, "geometry": {"type": "Point", "coordinates": [149.67003068144777, 6.060394691748407]}}, {"type": "Feature", "properties": {"norad_id": 41752, "name": "INSAT-3DR", "group": "weather", "lat": 0.013773064059572907, "lon": -121.7949105066841, "alt_km": 35734.05974705992, "timestamp": "2025-12-08T05:48:08.691516+00:00", "meta": {"OBJECT_NAME": "INSAT-3DR", "OBJECT_ID": "2016-054A", "EPOCH": "2025-12-07T21:55:38.755200", "MEAN_MOTION": 1.00270087, "ECCENTRICITY": 0.00145628, "INCLINATION": 0.0802, "RA_OF_ASC_NODE": 87.0128, "ARG_OF_PERICENTER": 182.9806, "MEAN_ANOMALY": 209.8589, "EPHEMERIS_TYPE": 0, "CLASSIFICATION_TYPE": "U", "NORAD_CAT_ID": 41752, "ELEMENT_SET_NO": 999, "REV_AT_EPOCH": 3390, "BSTAR": 0, "MEAN_MOTION_DOT": -7.4e-07, "MEAN_MOTION_DDOT": 0}, "tle": {"line1": "1 41752U 16054A   25341.91364300 -.00000074  00000+0  00000+0 0  9996", "line2": "2 41752   0.0802  87.0128 0014562 182.9806 209.8589  1.00270087 33900"}}, "geometry": {"type": "Point", "coordinates": [-121.7949105066841, 0.013773064059572907]}}]}